{"type":"FeatureCollection","features":[{"type":"Feature","geometry":{"type":"LineString","coordinates":[[-3.084543,53.258577],[-3.066681,53.253236],[-3.028984,53.249051],[-3.019759,53.246699],[-2.955551,53.215513],[-2.922427,53.193473],[-2.917983,53.189261],[-2.913564,53.183422],[-2.911445,53.174714],[-2.912557,53.170141],[-2.915295,53.167143],[-2.952399,53.152881],[-2.95581,53.150555],[-2.957231,53.147145],[-2.956797,53.144604],[-2.956662,53.143812],[-2.951469,53.138411],[-2.902635,53.106708],[-2.897364,53.102238],[-2.870957,53.066271],[-2.864058,53.053171],[-2.857495,53.035549],[-2.857004,53.03188],[-2.85734,53.027901],[-2.855118,53.022863],[-2.850545,53.017178],[-2.825766,52.99997],[-2.81835,52.98948],[-2.813441,52.986844],[-2.806181,52.984958],[-2.768638,52.981548],[-2.727731,52.96654],[-2.727297,52.966381],[-2.725023,52.958345],[-2.718822,52.948914],[-2.717116,52.945555],[-2.716238,52.941783],[-2.716755,52.925608],[-2.717685,52.921603],[-2.721509,52.918166],[-2.727813,52.916151],[-2.741197,52.914342],[-2.751171,52.9115],[-2.771532,52.902198],[-2.77949,52.900571],[-2.788998,52.902095],[-2.795044,52.90393],[-2.847961,52.937287],[-2.853154,52.939095],[-2.865066,52.941137],[-2.877985,52.941421],[-2.917156,52.934109],[-2.925941,52.93354],[-2.932969,52.934264],[-2.937542,52.935866],[-2.941599,52.938165],[-2.958368,52.95049],[-2.962967,52.951963],[-2.974775,52.953539],[-2.99281,52.95297],[-3.00392,52.949844],[-3.054718,52.926409],[-3.058594,52.925272],[-3.063607,52.924678],[-3.067586,52.923515],[-3.08035,52.917624],[-3.086189,52.913567],[-3.09146,52.908115],[-3.099703,52.89747],[-3.106343,52.893103],[-3.112906,52.890416],[-3.123474,52.887884],[-3.126859,52.884603],[-3.128357,52.880003],[-3.126264,52.871761],[-3.124223,52.866929],[-3.121691,52.862588],[-3.120864,52.859074],[-3.121898,52.854914],[-3.127065,52.849747],[-3.140682,52.841866],[-3.144299,52.839179],[-3.150268,52.833314],[-3.152232,52.829826],[-3.152619,52.823883],[-3.152335,52.818973],[-3.14043,52.796341],[-3.14032,52.796133],[-3.130114,52.789415],[-3.113061,52.784583],[-3.08221,52.783033],[-3.077559,52.781792],[-3.074717,52.77988],[-3.067715,52.771638],[-3.062961,52.768434],[-3.057509,52.766212],[-3.029552,52.763886],[-3.005781,52.759055],[-2.999941,52.756988],[-2.998546,52.756109],[-2.988211,52.744973],[-2.983353,52.741536],[-2.978599,52.739004],[-2.961494,52.733733],[-2.959944,52.731098],[-2.961107,52.728049],[-2.967411,52.719858],[-2.97369,52.716396],[-2.979839,52.7142],[-2.99927,52.713244],[-3.005522,52.712262],[-3.00976,52.710789],[-3.013274,52.70836],[-3.016245,52.704898],[-3.021129,52.69557],[-3.027898,52.686914],[-3.029087,52.683039],[-3.030275,52.67645],[-3.029216,52.663944],[-3.032446,52.654617],[-3.035753,52.649397],[-3.040223,52.64671],[-3.059266,52.639837],[-3.062935,52.637512],[-3.065725,52.63361],[-3.067586,52.62821],[-3.070454,52.614567],[-3.072056,52.609994],[-3.074175,52.606687],[-3.080608,52.601054],[-3.088928,52.59661],[-3.116317,52.586326],[-3.120037,52.584052],[-3.122983,52.580978],[-3.124662,52.576689],[-3.124972,52.571056],[-3.124042,52.566534],[-3.120037,52.559661],[-3.112183,52.551109],[-3.109883,52.54806],[-3.108359,52.544804],[-3.108359,52.540928],[-3.109883,52.537595],[-3.115387,52.531782],[-3.115128,52.528991],[-3.110684,52.52695],[-3.099909,52.526666],[-3.092546,52.527493],[-3.086551,52.529069],[-3.08283,52.531446],[-3.079678,52.53434],[-3.074614,52.540825],[-3.071126,52.543331],[-3.067198,52.54545],[-3.039164,52.554984],[-3.020043,52.566663],[-3.015238,52.568188],[-3.010147,52.568317],[-3.005316,52.567335],[-2.980459,52.549817],[-2.976997,52.545631],[-2.975498,52.541833],[-2.976377,52.53806],[-2.981338,52.533254],[-2.988857,52.527751],[-3.014876,52.513256],[-3.024178,52.499665],[-3.030844,52.4969],[-3.107738,52.493903],[-3.117996,52.491345],[-3.144196,52.480054],[-3.190317,52.46884],[-3.194632,52.466928],[-3.201454,52.462122],[-3.213107,52.450081],[-3.214657,52.446154],[-3.215122,52.442226],[-3.21507,52.438402],[-3.21321,52.430522],[-3.211505,52.426155],[-3.208766,52.421298],[-3.205975,52.417939],[-3.202668,52.414993],[-3.199309,52.412513],[-3.165099,52.398637],[-3.139519,52.383703],[-3.103656,52.368071],[-3.077559,52.35032],[-3.070557,52.346573],[-2.957414,52.341183],[-2.956662,52.341147],[-2.954983,52.331587],[-2.957334,52.327944],[-2.96369,52.322596],[-2.984025,52.314276],[-2.991079,52.309651],[-2.996169,52.302984],[-2.999476,52.296215],[-2.99927,52.294458],[-2.996531,52.283942],[-2.993275,52.279627],[-2.988676,52.276293],[-2.963613,52.27172],[-2.958962,52.270015],[-2.95643,52.267328],[-2.956378,52.264098],[-2.962166,52.259757],[-2.968367,52.257845],[-3.002525,52.257018],[-3.011904,52.254848],[-3.016064,52.253039],[-3.019036,52.251256],[-3.025883,52.244435],[-3.029087,52.242032],[-3.033169,52.239862],[-3.046812,52.235056],[-3.050998,52.232834],[-3.05415,52.230172],[-3.056682,52.226658],[-3.061669,52.215109],[-3.06694,52.209166],[-3.107661,52.172708],[-3.108927,52.168471],[-3.107428,52.163923],[-3.099418,52.157541],[-3.093166,52.156068],[-3.087404,52.156172],[-3.082469,52.156921],[-3.077663,52.15581],[-3.075699,52.152787],[-3.078231,52.147283],[-3.082133,52.143588],[-3.087016,52.140772],[-3.113371,52.135217],[-3.122208,52.132013],[-3.124662,52.128964],[-3.123913,52.125088],[-3.116575,52.11943],[-3.101434,52.113151],[-3.100814,52.111962],[-3.101744,52.110386],[-3.106808,52.107932],[-3.10996,52.105115],[-3.113216,52.101575],[-3.117479,52.092997],[-3.123758,52.075686],[-3.123086,52.073257],[-3.121717,52.070802],[-3.114301,52.068735],[-3.105051,52.063748],[-3.087559,52.051734],[-3.084691,52.047935],[-3.082624,52.043259],[-3.082133,52.035042],[-3.083425,52.029849],[-3.0819,52.022304],[-3.079885,52.0168],[-3.05125,51.983503],[-3.050843,51.98303],[-3.02826,51.963289],[-2.998779,51.946701],[-2.997099,51.945254],[-2.9948,51.942645],[-2.993404,51.939337],[-2.991932,51.931922],[-2.988211,51.927581],[-2.982268,51.922827],[-2.960848,51.911122],[-2.952502,51.908693],[-2.94178,51.908538],[-2.934726,51.909262],[-2.924339,51.912052],[-2.894573,51.925824],[-2.884625,51.92833],[-2.873592,51.929209],[-2.775666,51.875026],[-2.765124,51.866499],[-2.762643,51.863373],[-2.749311,51.853658],[-2.746572,51.85079],[-2.742334,51.844873],[-2.739647,51.84216],[-2.734996,51.839886],[-2.728743,51.838387],[-2.710553,51.839137],[-2.702595,51.838542],[-2.695826,51.836269],[-2.677532,51.825184],[-2.658877,51.817665],[-2.648511,51.8214],[-2.647043,51.821928],[-2.654174,51.807769],[-2.675775,51.786659],[-2.679341,51.778365],[-2.680994,51.772267],[-2.680581,51.764929],[-2.676705,51.758186],[-2.670194,51.749504],[-2.670556,51.743949],[-2.673915,51.73643],[-2.677222,51.732244],[-2.683733,51.726094],[-2.684353,51.721935],[-2.68301,51.716741],[-2.674225,51.703228],[-2.666783,51.685735],[-2.663579,51.680206],[-2.661719,51.675529],[-2.661616,51.672248],[-2.665802,51.668553],[-2.681615,51.664444],[-2.684043,51.662119],[-2.683475,51.659018],[-2.678101,51.653928],[-2.673036,51.647314],[-2.672519,51.637986],[-2.665322,51.617278]]},"properties":{"type":"internal"}},{"type":"Feature","geometry":{"type":"LineString","coordinates":[[-2.022855,55.805486],[-2.067957,55.795872],[-2.073641,55.793779],[-2.078499,55.790368],[-2.081755,55.782539],[-2.084648,55.767346],[-2.087232,55.762437],[-2.092038,55.757166],[-2.116636,55.741973],[-2.121494,55.740113],[-2.137823,55.735798],[-2.143094,55.733395],[-2.153481,55.726936],[-2.162887,55.722801],[-2.167537,55.719908],[-2.171465,55.715877],[-2.175857,55.70797],[-2.18118,55.701562],[-2.235647,55.654795],[-2.24283,55.649938],[-2.252855,55.647147],[-2.267325,55.645235],[-2.30665,55.64508],[-2.318898,55.64291],[-2.323962,55.640688],[-2.328044,55.638207],[-2.328975,55.633143],[-2.328716,55.629009],[-2.327321,55.625133],[-2.324789,55.622187],[-2.321275,55.619707],[-2.305255,55.614436],[-2.301224,55.612369],[-2.299622,55.608803],[-2.299002,55.604979],[-2.296573,55.601724],[-2.293318,55.599088],[-2.281381,55.59206],[-2.278745,55.589063],[-2.27735,55.585652],[-2.276471,55.581931],[-2.273422,55.57511],[-2.256731,55.549479],[-2.240246,55.532012],[-2.227224,55.520798],[-2.216992,55.508861],[-2.215648,55.505605],[-2.215338,55.502556],[-2.215545,55.500799],[-2.215803,55.499508],[-2.215803,55.496407],[-2.214718,55.49341],[-2.212651,55.490257],[-2.190533,55.471241],[-2.186864,55.468812],[-2.184487,55.465815],[-2.182885,55.462404],[-2.182782,55.458528],[-2.184487,55.454084],[-2.188673,55.44902],[-2.198595,55.441217],[-2.211359,55.433258],[-2.232133,55.425352],[-2.243915,55.422251],[-2.272234,55.418944],[-2.285256,55.412639],[-2.295643,55.405715],[-2.325151,55.398118],[-2.331455,55.394708],[-2.338483,55.387111],[-2.342204,55.381892],[-2.346234,55.3729],[-2.35135,55.367578],[-2.359464,55.362513],[-2.379307,55.355485],[-2.387937,55.35502],[-2.394242,55.356209],[-2.397859,55.358793],[-2.407213,55.362978],[-2.412742,55.364529],[-2.426746,55.365976],[-2.451913,55.36334],[-2.462765,55.360395],[-2.551545,55.314351],[-2.605443,55.275955],[-2.618983,55.269651],[-2.623065,55.266395],[-2.625752,55.262519],[-2.625701,55.255336],[-2.62322,55.251099],[-2.620533,55.247998],[-2.618983,55.245466],[-2.618518,55.242986],[-2.619138,55.239472],[-2.621928,55.231204],[-2.625494,55.227018],[-2.631282,55.2234],[-2.643891,55.220145],[-2.661357,55.212548],[-2.685007,55.190827],[-2.697479,55.179372],[-2.718925,55.167228],[-2.746572,55.156221],[-2.790703,55.144284],[-2.808196,55.141493],[-2.822484,55.135189],[-2.850288,55.111295],[-2.872094,55.092556],[-2.875505,55.088783],[-2.883101,55.083616],[-2.890258,55.080257],[-2.922323,55.071678],[-2.927698,55.068423],[-2.944338,55.046719],[-2.948523,55.043618],[-2.953794,55.041034],[-2.969969,55.039381],[-2.976997,55.040104],[-3.015031,55.051525],[-3.020793,55.052558],[-3.026064,55.050749],[-3.030275,55.045892],[-3.031877,55.019589],[-3.032963,55.015248],[-3.045933,54.999693],[-3.050291,54.98151]]},"properties":{"type":"internal"}},{"type":"Feature","geometry":{"type":"MultiLineString","coordinates":[[[-7.247097,55.069328],[-7.266503,55.065167],[-7.275288,55.058863],[-7.282987,55.051835],[-7.291152,55.046615],[-7.355024,55.040931],[-7.366962,55.035557],[-7.376987,55.02889],[-7.405254,55.003569],[-7.40112,54.994836],[-7.403755,54.99313],[-7.409078,54.992045],[-7.413109,54.984965],[-7.407424,54.959437],[-7.408665,54.951117],[-7.415755,54.944372],[-7.417139,54.943056],[-7.436983,54.938301],[-7.445251,54.932152],[-7.448972,54.920318],[-7.444735,54.894893],[-7.444735,54.884455],[-7.45507,54.863009],[-7.470831,54.845284],[-7.543385,54.793091],[-7.549741,54.779603],[-7.551705,54.754695],[-7.548398,54.747202],[-7.543023,54.743791],[-7.543075,54.741673],[-7.556149,54.738365]],[[-7.61537,54.739347],[-7.649683,54.744877]],[[-7.649683,54.744877],[-7.667512,54.738779],[-7.70229,54.718883],[-7.736603,54.707463],[-7.770503,54.706016]],[[-7.556149,54.738365],[-7.566639,54.738675],[-7.585398,54.744722]],[[-7.585398,54.744722],[-7.61537,54.739347]],[[-7.770503,54.706016],[-7.803576,54.716145],[-7.832153,54.730614],[-7.845899,54.731027]],[[-7.845899,54.731027],[-7.880109,54.711029],[-7.929666,54.696714],[-7.913233,54.688653],[-7.907135,54.686689],[-7.914835,54.671651],[-7.906619,54.661316],[-7.890082,54.655063],[-7.872771,54.652221],[-7.864347,54.649069],[-7.85427,54.636408],[-7.846416,54.631447],[-7.838044,54.63124]],[[-7.814996,54.639457],[-7.801199,54.634806],[-7.769159,54.618011],[-7.753553,54.614497]],[[-7.838044,54.63124],[-7.822541,54.638113],[-7.814996,54.639457]],[[-7.721204,54.625866],[-7.710558,54.624264],[-7.707951,54.604763],[-7.707944,54.604708],[-7.707871,54.604162],[-7.749264,54.596152],[-7.848844,54.54091],[-7.887137,54.532125]],[[-7.753553,54.614497],[-7.736758,54.619251],[-7.721204,54.625866]],[[-7.887137,54.532125],[-7.926411,54.533055],[-8.002194,54.543442]],[[-8.002194,54.543442],[-8.023278,54.529696],[-8.043561,54.512229],[-8.05586,54.497553],[-8.060976,54.493316],[-8.072448,54.487063],[-8.097046,54.478588],[-8.15017,54.46939],[-8.168467,54.463477],[-8.173837,54.461741],[-8.161177,54.454817],[-8.158128,54.447117],[-8.156035,54.439055],[-8.146346,54.430736],[-8.122419,54.415233],[-8.079941,54.380196],[-8.05648,54.365882],[-8.03134,54.358027],[-8.002194,54.357923],[-7.981033,54.326556],[-7.96801,54.31219],[-7.950802,54.300873],[-7.942075,54.298873],[-7.93411,54.297049],[-7.894966,54.293586],[-7.880264,54.287023],[-7.873649,54.271055],[-7.86967,54.226872],[-7.856441,54.211421],[-7.836959,54.204341],[-7.782078,54.2]],[[-7.017836,54.413166],[-6.984091,54.403089],[-6.922028,54.372703],[-6.915051,54.365933],[-6.905956,54.349035],[-6.897895,54.346193],[-6.885957,54.345624],[-6.879705,54.341594],[-6.870015,54.326001],[-6.858414,54.307332],[-6.856657,54.292811],[-6.864667,54.282734],[-6.882185,54.277257],[-6.846683,54.266456],[-6.837743,54.260513],[-6.833196,54.25209],[-6.829733,54.242375],[-6.823946,54.23235],[-6.807358,54.21633],[-6.787824,54.202998],[-6.766481,54.192352],[-6.744777,54.184187],[-6.73284,54.183567]],[[-7.168059,54.335031],[-7.159894,54.335186],[-7.127028,54.349759],[-7.078504,54.394717],[-7.049255,54.411512],[-7.017836,54.413166]],[[-7.185629,54.336943],[-7.168059,54.335031]],[[-7.192399,54.307384],[-7.184647,54.316634],[-7.185009,54.317254],[-7.187644,54.318804],[-7.191468,54.323869],[-7.193949,54.329967],[-7.19245,54.334721],[-7.18947,54.335692],[-7.185629,54.336943]],[[-7.193691,54.307539],[-7.192399,54.307384]],[[-7.199168,54.303457],[-7.193691,54.307539]],[[-7.206661,54.304903],[-7.199168,54.303457]],[[-7.293788,54.122021],[-7.280042,54.126155],[-7.27074,54.132253],[-7.263505,54.140986],[-7.26087,54.151166],[-7.265366,54.16114],[-7.24578,54.166979],[-7.247021,54.17225],[-7.256322,54.176901],[-7.261128,54.18088],[-7.255496,54.190854],[-7.249088,54.197416],[-7.240871,54.202326],[-7.229502,54.207545],[-7.174725,54.216072],[-7.153331,54.224237],[-7.159739,54.24067],[-7.14589,54.25209],[-7.181495,54.269763],[-7.1755,54.283664],[-7.209038,54.293431],[-7.211467,54.30418],[-7.206661,54.304903]],[[-7.722599,54.202326],[-7.70477,54.200362],[-7.632682,54.168529],[-7.625706,54.162173],[-7.624052,54.153336],[-7.620796,54.144965],[-7.609014,54.139901],[-7.502302,54.125121]],[[-7.782078,54.2],[-7.722599,54.202326]],[[-6.706537,54.198915],[-6.694651,54.197985],[-6.683954,54.194368],[-6.663025,54.183826],[-6.648448,54.173665],[-6.640339,54.168013],[-6.634552,54.150133],[-6.643957,54.131839],[-6.666436,54.114786],[-6.655791,54.103314],[-6.657082,54.091945],[-6.672534,54.068432],[-6.657289,54.061146],[-6.630624,54.041819],[-6.616465,54.037271]],[[-6.73284,54.183567],[-6.724779,54.188631],[-6.717234,54.195143],[-6.706537,54.198915]],[[-7.295545,54.165119],[-7.292134,54.162638],[-7.295028,54.155404],[-7.296423,54.146515],[-7.29632,54.134991],[-7.297353,54.125896],[-7.293788,54.122021]],[[-7.326964,54.113597],[-7.316489,54.11428],[-7.310324,54.114683],[-7.333165,54.142743],[-7.333165,54.149409],[-7.325982,54.154577],[-7.295545,54.165119]],[[-7.439619,54.146929],[-7.414659,54.145688],[-7.425769,54.136955],[-7.422255,54.135456]],[[-7.502302,54.125121],[-7.480753,54.127653],[-7.439619,54.146929]],[[-7.41223,54.136438],[-7.403962,54.135043],[-7.396624,54.126258],[-7.39466,54.121917],[-7.390216,54.121194]],[[-7.422255,54.135456],[-7.41223,54.136438]],[[-7.375488,54.123312],[-7.326964,54.113597]],[[-7.390216,54.121194],[-7.375488,54.123312]],[[-6.354827,54.110652],[-6.346662,54.109877],[-6.338962,54.102952],[-6.327128,54.097888]],[[-6.433892,54.055306],[-6.426761,54.05541],[-6.401026,54.060887],[-6.377513,54.063264],[-6.371157,54.066778],[-6.366919,54.075098],[-6.367643,54.083418],[-6.369348,54.091118],[-6.368108,54.097319],[-6.354827,54.110652]],[[-6.28465,54.105226],[-6.269887,54.097927]],[[-6.327128,54.097888],[-6.313796,54.099696],[-6.299585,54.104037],[-6.28465,54.105226]],[[-6.450894,54.068432],[-6.450222,54.066675],[-6.446243,54.062438],[-6.4403,54.057993],[-6.433892,54.055306]],[[-6.564013,54.04895],[-6.47854,54.067709],[-6.450894,54.068432]],[[-6.587164,54.053343],[-6.571868,54.049519],[-6.564013,54.04895]],[[-6.616465,54.037271],[-6.610987,54.039235],[-6.605217,54.044475],[-6.60029,54.04895],[-6.595071,54.052412],[-6.587164,54.053343]]]},"properties":{"type":"international"}}]}