{"type":"FeatureCollection","features":[{"type":"Feature","geometry":{"type":"LineString","coordinates":[[-2.413743,53.489343],[-2.42207,53.480038],[-2.432136,53.475438],[-2.44352,53.474423],[-2.455796,53.475896],[-2.464937,53.478055],[-2.469635,53.478626],[-2.474002,53.478002],[-2.489931,53.472428],[-2.563791,53.452685]]},"properties":{"name":"M62"}},{"type":"Feature","geometry":{"type":"LineString","coordinates":[[-0.174548,51.268538],[-0.157264,51.266774],[-0.124445,51.255425],[-0.107583,51.251297],[-0.088242,51.250064],[-0.068659,51.25088],[-0.030041,51.256413],[0.086342,51.282445],[0.125823,51.287013],[0.125479,51.300348],[0.128349,51.313631],[0.133302,51.326441],[0.148317,51.354235],[0.242475,51.481915],[0.258996,51.512264],[0.266743,51.532518],[0.270811,51.553183],[0.269487,51.573781],[0.261043,51.593824],[0.25367,51.603785],[0.245159,51.613011],[0.226535,51.629674],[0.209808,51.64247],[0.191946,51.653609],[0.158176,51.667948],[0.122924,51.675977],[-0.090937,51.693373],[-0.14688,51.6936],[-0.169829,51.695913],[-0.255674,51.721286],[-0.297623,51.727761],[-0.318746,51.729109],[-0.36206,51.728245],[-0.405201,51.721032],[-0.445405,51.705387],[-0.47989,51.679221],[-0.495897,51.660297],[-0.523157,51.620877],[-0.528973,51.610841],[-0.533628,51.600349],[-0.535174,51.594688],[-0.535582,51.58914],[-0.534739,51.583671],[-0.532525,51.578261],[-0.522719,51.561277],[-0.520068,51.555242],[-0.51702,51.544937],[-0.515538,51.534466],[-0.515912,51.523951],[-0.518414,51.513533],[-0.526071,51.491406],[-0.528395,51.480232],[-0.528763,51.468189],[-0.52017,51.401442],[-0.517688,51.392307],[-0.514506,51.383396],[-0.497802,51.356647],[-0.474374,51.337607],[-0.446406,51.324703],[-0.416078,51.316379],[-0.327368,51.301153],[-0.312253,51.29672],[-0.298119,51.289749],[-0.271658,51.269512],[-0.257751,51.260377],[-0.242362,51.254733],[-0.224955,51.254768],[-0.19167,51.265222],[-0.174548,51.268538]]},"properties":{"name":"M25"}},{"type":"Feature","geometry":{"type":"LineString","coordinates":[[-3.535762,50.665882],[-3.518014,50.679952],[-3.498323,50.692564],[-3.481353,50.707352],[-3.471768,50.727941],[-3.469854,50.758269],[-3.468028,50.768286],[-3.464802,50.777304],[-3.460351,50.785631],[-3.454696,50.793177],[-3.447825,50.79985],[-3.403777,50.830167],[-3.392174,50.844062],[-3.383786,50.863797],[-3.371734,50.904949],[-3.359899,50.922928],[-3.342057,50.936129],[-3.321397,50.943996],[-3.194842,50.960837],[-3.118446,50.977911],[-3.076154,50.99085],[-3.067881,50.994551],[-3.059382,50.999221],[-3.051407,51.004468],[-3.044107,51.010602],[-3.037623,51.017903],[-3.026129,51.033525],[-3.015975,51.050037],[-2.99149,51.099747],[-2.990484,51.104574],[-2.991287,51.109357],[-2.993688,51.114094],[-2.999527,51.122588],[-3.001228,51.125472],[-3.00255,51.128471],[-3.003172,51.131591],[-3.002753,51.134841],[-2.988212,51.180951],[-2.986575,51.184519],[-2.969524,51.206575],[-2.925422,51.253042],[-2.918023,51.262571],[-2.911802,51.272642],[-2.906827,51.283367],[-2.903167,51.294865],[-2.894353,51.341719],[-2.886846,51.361635],[-2.875389,51.37896],[-2.86087,51.39404],[-2.844174,51.407255],[-2.826099,51.418978],[-2.787571,51.438409],[-2.735506,51.458322],[-2.575555,51.543062]]},"properties":{"name":"M5"}},{"type":"Feature","geometry":{"type":"LineString","coordinates":[[-2.941254,53.158859],[-2.861844,53.176105],[-2.858999,53.17703],[-2.857842,53.178547],[-2.858396,53.183383],[-2.859438,53.188131],[-2.871417,53.222344],[-2.872118,53.239355],[-2.861827,53.253431],[-2.853792,53.25717],[-2.844952,53.258862],[-2.806802,53.260224],[-2.797004,53.261685],[-2.510737,53.344923],[-2.488363,53.349613]]},"properties":{"name":"M56"}},{"type":"Feature","geometry":{"type":"LineString","coordinates":[[0.433615,51.402618],[0.450526,51.396764],[0.464564,51.385304],[0.47757,51.371966],[0.49139,51.360459],[0.499979,51.355988],[0.509234,51.352762],[0.518877,51.350706],[0.528613,51.349723],[0.60654,51.352371],[0.619484,51.35191],[0.623734,51.351271],[0.639607,51.346742],[0.743218,51.307789],[0.792572,51.300021],[0.842192,51.301646],[0.941019,51.317324]]},"properties":{"name":"M2"}},{"type":"Feature","geometry":{"type":"LineString","coordinates":[[-4.127522,51.693134],[-4.118856,51.687881],[-4.109597,51.684771],[-4.099854,51.683103],[-4.081694,51.681793],[-3.952886,51.692311],[-3.933484,51.69185],[-3.91425,51.689674],[-3.895241,51.685285],[-3.886251,51.681309],[-3.878809,51.675648],[-3.860366,51.65367],[-3.853033,51.647551],[-3.844935,51.642438],[-3.83642,51.638223],[-3.827134,51.63463],[-3.785035,51.622152],[-3.771992,51.616724],[-3.759546,51.610129],[-3.748064,51.602292],[-3.733774,51.589295],[-3.721257,51.574116],[-3.710943,51.557383],[-3.70032,51.532865],[-3.696423,51.527294],[-3.691217,51.522994],[-3.684335,51.519967],[-3.675232,51.518465],[-3.666372,51.519191],[-3.657679,51.521551],[-3.621291,51.53766],[-3.611699,51.541049],[-3.600711,51.543204],[-3.589287,51.543694],[-3.566667,51.541726],[-3.544842,51.537435],[-3.460662,51.508863],[-3.439247,51.503566],[-3.417478,51.500092],[-3.395209,51.49861],[-3.347837,51.500874],[-3.301036,51.508647],[-3.256751,51.520766],[-3.214593,51.536677],[-3.191354,51.541904],[-3.098399,51.5483],[-3.087706,51.550566],[-3.077495,51.554291],[-3.069824,51.558532],[-3.034831,51.583435],[-3.020729,51.590686],[-3.005741,51.595507],[-2.989316,51.597412],[-2.950345,51.596671]]},"properties":{"name":"M4"}},{"type":"Feature","geometry":{"type":"LineString","coordinates":[[-2.950345,51.596671],[-2.884016,51.598363],[-2.860956,51.601726],[-2.849301,51.602432],[-2.83785,51.601169],[-2.826541,51.597257],[-2.795185,51.579477],[-2.782905,51.574446],[-2.720143,51.559077],[-2.708763,51.554323],[-2.698785,51.547443],[-2.692748,51.540559],[-2.688262,51.532693],[-2.685024,51.52417],[-2.679401,51.4974]]},"properties":{"name":"M4"}},{"type":"Feature","geometry":{"type":"LineString","coordinates":[[-2.587609,51.543484],[-2.568164,51.527227],[-2.546851,51.512972],[-2.523746,51.502183],[-2.498936,51.496324],[-2.460384,51.494017],[-2.441084,51.494795],[-2.280155,51.519109],[-2.096006,51.518821],[-2.067293,51.522166],[-2.040744,51.527804],[-1.956105,51.555627],[-1.93116,51.560399],[-1.905702,51.560965],[-1.892946,51.558748],[-1.855758,51.547157],[-1.718897,51.531663],[-1.689759,51.526112],[-1.482842,51.467466],[-1.431597,51.459856],[-1.379666,51.45733],[-1.354958,51.459246],[-1.350399,51.460042],[-1.337348,51.464756],[-1.328201,51.467078],[-1.318608,51.467888],[-1.299194,51.46797]]},"properties":{"name":"M4"}},{"type":"Feature","geometry":{"type":"LineString","coordinates":[[-1.299194,51.46797],[-1.155164,51.455382],[-1.130417,51.447524],[-1.077385,51.424823],[-1.049361,51.416108],[-1.029979,51.412284],[-1.010341,51.410093],[-0.99037,51.409411],[-0.971111,51.410744],[-0.95197,51.414218],[-0.9147,51.424899],[-0.79103,51.481714],[-0.771552,51.488096],[-0.751304,51.492418],[-0.649322,51.49868],[-0.526123,51.494221]]},"properties":{"name":"M4"}},{"type":"Feature","geometry":{"type":"LineString","coordinates":[[-2.575555,51.543062],[-2.510726,51.584042],[-2.472407,51.604468],[-2.467275,51.608618],[-2.46278,51.613536],[-2.424787,51.672203],[-2.413886,51.686504],[-2.408185,51.691853],[-2.402096,51.695861],[-2.388707,51.702928],[-2.372609,51.714052],[-2.358485,51.727458],[-2.307716,51.78793],[-2.292844,51.80091],[-2.275918,51.811632],[-2.220308,51.835876],[-2.202537,51.845457],[-2.191845,51.853012],[-2.182103,51.861651],[-2.173306,51.87127],[-2.165458,51.88175]]},"properties":{"name":"M5"}},{"type":"Feature","geometry":{"type":"LineString","coordinates":[[-2.165458,51.88175],[-2.145673,51.915675],[-2.130863,51.953432],[-2.123921,51.993278],[-2.12773,52.033476]]},"properties":{"name":"M5"}},{"type":"Feature","geometry":{"type":"LineString","coordinates":[[-2.12773,52.033476],[-2.133112,52.048526],[-2.14085,52.062247],[-2.150427,52.074844],[-2.179291,52.103889],[-2.18721,52.113608],[-2.192769,52.124572],[-2.194114,52.139254],[-2.189607,52.153316],[-2.181518,52.166258],[-2.141688,52.211257],[-2.129018,52.229653],[-2.120115,52.250773],[-2.108572,52.302484],[-2.100581,52.318436],[-2.05325,52.374845],[-2.038197,52.397459]]},"properties":{"name":"M5"}},{"type":"Feature","geometry":{"type":"LineString","coordinates":[[-0.674748,53.774177],[-0.722462,53.770172],[-0.768727,53.759847],[-0.947421,53.698931],[-0.97433,53.693678],[-1.001416,53.690749],[-1.056061,53.690889],[-1.165955,53.701745],[-1.278108,53.704534],[-1.389568,53.715775],[-1.53938,53.754436],[-1.640593,53.769912],[-1.675648,53.77086],[-1.701904,53.768655],[-1.714774,53.765587],[-1.726785,53.760462],[-1.729855,53.758598],[-1.732747,53.756469]]},"properties":{"name":"M62"}},{"type":"Feature","geometry":{"type":"LineString","coordinates":[[-1.981597,53.638437],[-2.056524,53.624784],[-2.2809,53.555552]]},"properties":{"name":"M62"}},{"type":"Feature","geometry":{"type":"LineString","coordinates":[[-2.049885,52.612069],[-2.062898,52.627484],[-2.073317,52.645087],[-2.081517,52.663929],[-2.09037,52.692122],[-2.094138,52.710515],[-2.097984,52.747085],[-2.100869,52.75594],[-2.110023,52.770953],[-2.134086,52.796976],[-2.144951,52.810866],[-2.147571,52.815331],[-2.149753,52.819916],[-2.151426,52.824697],[-2.15253,52.829763],[-2.154821,52.853724],[-2.158092,52.863825],[-2.16364,52.872059],[-2.170742,52.87924],[-2.178689,52.886179],[-2.190019,52.899219],[-2.197729,52.913955],[-2.209405,52.945849],[-2.217623,52.958986],[-2.229348,52.96839],[-2.243297,52.974932],[-2.294464,52.987888],[-2.311343,52.994906],[-2.325641,53.006794],[-2.336308,53.02547],[-2.34131,53.0465],[-2.345616,53.156385],[-2.34791,53.167539],[-2.352443,53.178284],[-2.358383,53.185879],[-2.365824,53.191859],[-2.381966,53.202473],[-2.389343,53.209409],[-2.395006,53.217783],[-2.398673,53.227198],[-2.400081,53.237263],[-2.399487,53.245107],[-2.396565,53.260568],[-2.396037,53.268417],[-2.397485,53.278034],[-2.400947,53.287201],[-2.405977,53.295677],[-2.412118,53.303223],[-2.426476,53.315374],[-2.442821,53.324742],[-2.491713,53.34674],[-2.49855,53.350713],[-2.50506,53.355199]]},"properties":{"name":"M74"}},{"type":"Feature","geometry":{"type":"LineString","coordinates":[[-2.497371,53.357926],[-2.50617,53.376908],[-2.517014,53.395327],[-2.529504,53.412679],[-2.547608,53.432877],[-2.561279,53.445612],[-2.5647,53.449287],[-2.573856,53.461671],[-2.58042,53.468599],[-2.588041,53.474552],[-2.618728,53.492522],[-2.671546,53.515716],[-2.679109,53.519925],[-2.686284,53.524723],[-2.692794,53.530285],[-2.697557,53.536363],[-2.700702,53.543261],[-2.702465,53.550705],[-2.703083,53.558408],[-2.701323,53.578318],[-2.696369,53.597921],[-2.676392,53.656174],[-2.671947,53.676976],[-2.66957,53.698111],[-2.669456,53.719377],[-2.671661,53.737362],[-2.676253,53.754623],[-2.683025,53.771167],[-2.695768,53.793226]]},"properties":{"name":"M74"}},{"type":"Feature","geometry":{"type":"LineString","coordinates":[[-2.695768,53.793226],[-2.739656,53.852716],[-2.74621,53.864205],[-2.750375,53.876761],[-2.751803,53.888571],[-2.753072,53.924222],[-2.755218,53.933906],[-2.758653,53.942889],[-2.767836,53.960119],[-2.776096,53.982566],[-2.77783,54.006387],[-2.775109,54.030537],[-2.742776,54.171982],[-2.736432,54.189716],[-2.728481,54.206773],[-2.718839,54.223071],[-2.640068,54.321004],[-2.614729,54.366639],[-2.606526,54.385222],[-2.601276,54.404422],[-2.600392,54.423994],[-2.605273,54.443711],[-2.611047,54.455273],[-2.618062,54.46617],[-2.762593,54.658625]]},"properties":{"name":"M74"}},{"type":"Feature","geometry":{"type":"LineString","coordinates":[[-2.762593,54.658625],[-2.816709,54.743887],[-2.868439,54.804786],[-2.873739,54.813475],[-2.877765,54.82291],[-2.883496,54.842549],[-2.888828,54.867592],[-2.891472,54.875659],[-2.895726,54.883966],[-2.901192,54.89162],[-2.913985,54.905363],[-2.949356,54.935858],[-3.023965,54.987928],[-3.045989,54.999087],[-3.187884,55.047134],[-3.277708,55.066408],[-3.299423,55.073496],[-3.320072,55.083028],[-3.339126,55.095733],[-3.354561,55.109474],[-3.368328,55.124661],[-3.380245,55.141313],[-3.390129,55.159455],[-3.423812,55.257449],[-3.428961,55.26808],[-3.435046,55.278382],[-3.449158,55.297516],[-3.526531,55.385321],[-3.534956,55.39261],[-3.544111,55.399217],[-3.553907,55.404779],[-3.564244,55.408941],[-3.575401,55.41135],[-3.598176,55.413672],[-3.609333,55.416108],[-3.614214,55.418018],[-3.618832,55.420579],[-3.623032,55.423767],[-3.626652,55.427562],[-3.629174,55.431298],[-3.635135,55.443411],[-3.64209,55.453191],[-3.650941,55.462049],[-3.670149,55.47756],[-3.711856,55.506354],[-3.799141,55.549957],[-3.818794,55.562426],[-3.836449,55.578001],[-3.934671,55.686863],[-3.971568,55.736613],[-3.984517,55.749829],[-4.043222,55.800149],[-4.056301,55.815418],[-4.067488,55.832142],[-4.071671,55.840368],[-4.07486,55.84966],[-4.076566,55.859286],[-4.076298,55.8685],[-4.074532,55.878694],[-4.073027,55.883707],[-4.070699,55.888255],[-4.064268,55.896941],[-4.056922,55.904857]]},"properties":{"name":"M74"}},{"type":"Feature","geometry":{"type":"LineString","coordinates":[[-6.304289,53.367674],[-6.283697,53.372078],[-6.273726,53.375389],[-6.264196,53.379874],[-6.254638,53.386294],[-6.246093,53.39398],[-6.231241,53.411609],[-6.224178,53.421709],[-6.217882,53.432323],[-6.212561,53.443439],[-6.208417,53.455048],[-6.205641,53.467843],[-6.204458,53.480881],[-6.210261,53.569442],[-6.212865,53.578813],[-6.216743,53.587759],[-6.2217,53.596183],[-6.234559,53.611991],[-6.249907,53.625607],[-6.266926,53.637212],[-6.284798,53.646992],[-6.335807,53.667371],[-6.34619,53.672715],[-6.355969,53.679056],[-6.365195,53.686607],[-6.380447,53.703274],[-6.392188,53.722495],[-6.399093,53.7437],[-6.399827,53.766298],[-6.398065,53.789589],[-6.398476,53.80118],[-6.400177,53.812815],[-6.403181,53.824132],[-6.411961,53.845809],[-6.421812,53.865745],[-6.42356,53.870683],[-6.424659,53.875837],[-6.42499,53.88249],[-6.419979,53.925827],[-6.419923,53.937488],[-6.421233,53.949178],[-6.429541,53.979002],[-6.431672,53.994256],[-6.428568,54.009102],[-6.424131,54.015668],[-6.418287,54.020443],[-6.392019,54.034169],[-6.386126,54.038013],[-6.380541,54.042292],[-6.365293,54.061752],[-6.358211,54.084868],[-6.35622,54.109739],[-6.356239,54.134487]]},"properties":{"name":"M1"}},{"type":"Feature","geometry":{"type":"LineString","coordinates":[[-5.983893,54.684038],[-6.001558,54.708043],[-6.02815,54.72244],[-6.05873,54.729857],[-6.088354,54.732917],[-6.226261,54.732439],[-6.328362,54.74062]]},"properties":{"name":"M2"}},{"type":"Feature","geometry":{"type":"LineString","coordinates":[[-6.016683,54.539777],[-5.982503,54.577767],[-5.968437,54.603154],[-5.96605,54.631628],[-5.972188,54.660489],[-5.983694,54.68706]]},"properties":{"name":"M2"}},{"type":"Feature","geometry":{"type":"LineString","coordinates":[[-6.969517,53.437579],[-6.943565,53.430267],[-6.736423,53.406376],[-6.544767,53.361306],[-6.508607,53.356473],[-6.472022,53.355152],[-6.435493,53.357459],[-6.399502,53.363471]]},"properties":{"name":"M4"}},{"type":"Feature","geometry":{"type":"LineString","coordinates":[[-6.328362,54.74062],[-6.404749,54.738482],[-6.441067,54.741498],[-6.471727,54.751745]]},"properties":{"name":"M2"}},{"type":"Feature","geometry":{"type":"LineString","coordinates":[[-3.977117,56.142492],[-3.981793,56.157569],[-3.982338,56.172333],[-3.977886,56.186039],[-3.967566,56.197954],[-3.954413,56.206444],[-3.940002,56.212934],[-3.706642,56.28804],[-3.460913,56.394659]]},"properties":{"name":"M9"}},{"type":"Feature","geometry":{"type":"LineString","coordinates":[[-2.043922,52.391844],[-2.031242,52.405734],[-2.0255,52.413232],[-2.020826,52.421326],[-2.013165,52.438792],[-2.010323,52.447977],[-2.008889,52.457313],[-2.008096,52.492296],[-2.011761,52.538833],[-2.013703,52.548811],[-2.017402,52.55848],[-2.026837,52.576748],[-2.049885,52.612069]]},"properties":{"name":"M5"}},{"type":"Feature","geometry":{"type":"LineString","coordinates":[[-2.831886,51.597742],[-2.762825,51.621522],[-2.745042,51.624538],[-2.727333,51.625168],[-2.709676,51.623529],[-2.69204,51.619737],[-2.662218,51.606938],[-2.635709,51.587976],[-2.587609,51.543484]]},"properties":{"name":"M48"}},{"type":"Feature","geometry":{"type":"LineString","coordinates":[[-3.034215,53.513],[-3.008197,53.474543],[-2.970237,53.44245],[-2.925531,53.420181],[-2.879282,53.411183]]},"properties":{"name":"M57"}},{"type":"Feature","geometry":{"type":"LineString","coordinates":[[-0.20994,51.538663],[-0.254146,51.601175],[-0.389098,51.687297],[-0.405201,51.721032]]},"properties":{"name":"M1"}},{"type":"Feature","geometry":{"type":"LineString","coordinates":[[-1.216098,52.435408],[-1.234834,52.445319],[-1.239083,52.447169],[-1.262231,52.45358],[-1.311111,52.459267],[-1.473268,52.457914],[-1.700316,52.483797],[-1.726286,52.490048],[-1.818528,52.525527],[-1.924768,52.548038],[-1.947154,52.555744],[-2.067449,52.616342],[-2.111035,52.627829]]},"properties":{"name":"M6"}},{"type":"Feature","geometry":{"type":"LineString","coordinates":[[-2.488363,53.349613],[-2.449756,53.354452],[-2.410921,53.355873],[-2.342792,53.34868],[-2.333613,53.349126],[-2.324324,53.350474],[-2.315554,53.352594],[-2.307393,53.35617],[-2.299943,53.361884],[-2.284811,53.376424],[-2.276761,53.382707],[-2.267605,53.388132]]},"properties":{"name":"M56"}},{"type":"Feature","geometry":{"type":"LineString","coordinates":[[-2.563791,53.452685],[-2.632486,53.42831],[-2.670576,53.41893],[-2.709468,53.413604],[-2.870427,53.411183]]},"properties":{"name":"M62"}},{"type":"Feature","geometry":{"type":"LineString","coordinates":[[-2.396761,53.494864],[-2.436977,53.510629],[-2.474436,53.531104],[-2.509158,53.555987],[-2.541169,53.584959],[-2.600176,53.65228],[-2.612203,53.669063],[-2.617381,53.678204],[-2.623927,53.694273],[-2.638035,53.745356],[-2.642078,53.755031],[-2.653135,53.768883],[-2.668418,53.77845],[-2.70221,53.791884]]},"properties":{"name":"M61"}},{"type":"Feature","geometry":{"type":"LineString","coordinates":[[0.129189,51.704608],[0.149641,51.757973],[0.168425,51.857804],[0.171494,51.866884],[0.192427,51.904635],[0.194174,51.90901],[0.195347,51.913703],[0.195767,51.918463],[0.195457,51.928083],[0.194915,51.931953],[0.193871,51.935771],[0.176974,51.982316],[0.165118,52.049057],[0.16158,52.061821],[0.156787,52.074156],[0.153976,52.079397],[0.143184,52.093648]]},"properties":{"name":"M11"}},{"type":"Feature","geometry":{"type":"LineString","coordinates":[[-1.281214,53.384623],[-1.322396,53.387315],[-1.342588,53.391296],[-1.362243,53.39769],[-1.381045,53.406428],[-1.416535,53.428339],[-1.450168,53.453464],[-1.465666,53.467776],[-1.479946,53.483305],[-1.510729,53.526394],[-1.534317,53.566175],[-1.538721,53.577276],[-1.542812,53.595742],[-1.54364,53.61431],[-1.534836,53.716017],[-1.52923,53.736971],[-1.52046,53.756539],[-1.509172,53.774836],[-1.495602,53.791502],[-1.479978,53.806191],[-1.466621,53.815755],[-1.4525,53.823408],[-1.437614,53.829463],[-1.361337,53.851744],[-1.332326,53.863755],[-1.305228,53.879905]]},"properties":{"name":"M1"}},{"type":"Feature","geometry":{"type":"LineString","coordinates":[[-1.201535,52.441723],[-1.193772,52.489006],[-1.191511,52.537284],[-1.196088,52.585218],[-1.208829,52.63148],[-1.212203,52.639227],[-1.216461,52.646128],[-1.222063,52.651798],[-1.229478,52.655847],[-1.238342,52.658323],[-1.256541,52.661368],[-1.265491,52.663532],[-1.279781,52.672358],[-1.28766,52.68605],[-1.289983,52.702296],[-1.287629,52.718764],[-1.27708,52.750801],[-1.273763,52.767132],[-1.27456,52.783979],[-1.277438,52.793362],[-1.281843,52.80206],[-1.287481,52.810055],[-1.305796,52.828981],[-1.31078,52.835445],[-1.314424,52.842923],[-1.317115,52.862921],[-1.313549,52.883352],[-1.306197,52.903198],[-1.267829,52.980223],[-1.260606,53.000888],[-1.258316,53.010245],[-1.256714,53.020016],[-1.256225,53.029872],[-1.257291,53.03945],[-1.259207,53.045272],[-1.262171,53.0504],[-1.266003,53.054967],[-1.288255,53.074145],[-1.293671,53.079748],[-1.301175,53.089102],[-1.307791,53.09917],[-1.313381,53.10984],[-1.317809,53.120979],[-1.322397,53.142076],[-1.322905,53.163415],[-1.288138,53.372014],[-1.277217,53.404664],[-1.2592,53.43337],[-1.237941,53.452253],[-1.213361,53.466493],[-1.161696,53.490862]]},"properties":{"name":"M1"}},{"type":"Feature","geometry":{"type":"LineString","coordinates":[[-0.526123,51.494221],[-0.315059,51.490231]]},"properties":{"name":"M4"}},{"type":"Feature","geometry":{"type":"LineString","coordinates":[[-0.386741,51.450414],[-0.405781,51.450834],[-0.424886,51.449116],[-0.462419,51.441711],[-0.503116,51.430233],[-0.714719,51.340777],[-0.918045,51.283061],[-1.023741,51.264163],[-1.120283,51.238738],[-1.158667,51.22495],[-1.177318,51.216719],[-1.195246,51.20703],[-1.212149,51.195351],[-1.227396,51.181797],[-1.240909,51.166514],[-1.252605,51.149617],[-1.292203,51.079119],[-1.31555,51.045142],[-1.329512,51.029958],[-1.345517,51.01711],[-1.34903,51.015009],[-1.350067,51.013741],[-1.350296,51.011778],[-1.350129,51.007385],[-1.350444,51.002995],[-1.351279,50.997637],[-1.354061,50.987137],[-1.360042,50.972096],[-1.365153,50.962412],[-1.371308,50.953396],[-1.37861,50.945477]]},"properties":{"name":"M3"}},{"type":"Feature","geometry":{"type":"LineString","coordinates":[[-3.096191,53.420035],[-3.08442,53.406694],[-3.075501,53.391428],[-3.061186,53.358813],[-3.05264,53.342858],[-3.041957,53.32931],[-3.028585,53.318632],[-3.01197,53.311302],[-2.978887,53.305976],[-2.944259,53.303768],[-2.911274,53.297334],[-2.883114,53.279343],[-2.877874,53.273107],[-2.873316,53.266364],[-2.869375,53.259229],[-2.865997,53.251818]]},"properties":{"name":"M53"}},{"type":"Feature","geometry":{"type":"LineString","coordinates":[[-2.050887,52.395927],[-2.007262,52.39325],[-1.895039,52.372022],[-1.819854,52.350193],[-1.67614,52.28566],[-1.489583,52.221512],[-1.453469,52.202323],[-1.422902,52.180757],[-1.408622,52.168521],[-1.382323,52.140897],[-1.357932,52.110408],[-1.308477,52.022142],[-1.302169,52.015124],[-1.294172,52.009699],[-1.210861,51.967357],[-1.195143,51.956883],[-1.180506,51.944988],[-1.169211,51.932023],[-1.161033,51.916903],[-1.148815,51.884565]]},"properties":{"name":"M40"}},{"type":"Feature","geometry":{"type":"LineString","coordinates":[[-1.055065,51.766694],[-1.045228,51.751334],[-1.039752,51.744025],[-0.985463,51.693268],[-0.954957,51.671179],[-0.905387,51.642893],[-0.869983,51.628222],[-0.833334,51.616905],[-0.754661,51.602522],[-0.532525,51.578261]]},"properties":{"name":"M40"}},{"type":"Feature","geometry":{"type":"LineString","coordinates":[[-0.20994,51.538663],[-0.19115,51.508452],[-0.142149,51.456055],[-0.123386,51.425771],[-0.118077,51.406482],[-0.117759,51.387314],[-0.121784,51.368428],[-0.129485,51.35],[-0.14849,51.312181],[-0.152014,51.300144],[-0.153664,51.287952],[-0.153694,51.275608],[-0.152352,51.263119]]},"properties":{"name":"M23"}},{"type":"Feature","geometry":{"type":"LineString","coordinates":[[-0.152352,51.263119],[-0.137016,51.186832],[-0.134216,51.160222],[-0.133831,51.14684],[-0.13444,51.133487],[-0.13603,51.12201],[-0.139034,51.110731],[-0.143873,51.100216],[-0.150964,51.091052],[-0.161872,51.083267],[-0.174385,51.079014],[-0.18772,51.077585],[-0.201091,51.078279]]},"properties":{"name":"M23"}},{"type":"Feature","geometry":{"type":"LineString","coordinates":[[-1.0024,50.856963],[-1.041508,50.855236],[-1.085066,50.859795],[-1.240145,50.859603],[-1.249146,50.860312],[-1.258507,50.86186],[-1.267618,50.864401],[-1.275856,50.868085],[-1.28395,50.873101],[-1.291727,50.878914],[-1.298799,50.885541],[-1.304797,50.892994],[-1.321198,50.917316],[-1.327783,50.924337],[-1.335955,50.931069],[-1.344366,50.936806],[-1.362794,50.946408],[-1.369956,50.949135],[-1.455434,50.968292]]},"properties":{"name":"M27"}},{"type":"Feature","geometry":{"type":"LineString","coordinates":[[-1.090801,53.516305],[-1.061076,53.522818],[-1.046662,53.527773],[-1.033131,53.534567],[-1.02386,53.541386],[-1.015886,53.549474],[-1.00898,53.558539],[-0.967138,53.637624],[-0.964184,53.645513],[-0.962259,53.653654],[-0.96179,53.66206],[-0.963314,53.671849],[-0.966537,53.681276],[-0.975769,53.698925]]},"properties":{"name":"M18"}},{"type":"Feature","geometry":{"type":"LineString","coordinates":[[-3.954582,56.087774],[-3.871286,56.076495],[-3.831957,56.063273],[-3.796988,56.039925],[-3.770059,56.012266],[-3.761283,56.005723],[-3.751825,56.000161],[-3.747389,55.998122],[-3.738058,55.995095],[-3.716998,55.98988],[-3.488954,55.975019],[-3.397211,55.956573]]},"properties":{"name":"M9"}},{"type":"Feature","geometry":{"type":"LineString","coordinates":[[-7.152703,53.469436],[-7.104312,53.465349],[-7.0124,53.441709],[-6.965534,53.433595]]},"properties":{"name":"M4"}},{"type":"Feature","geometry":{"type":"LineString","coordinates":[[-6.301676,53.368415],[-6.343438,53.354041],[-6.363206,53.344421],[-6.381953,53.332594],[-6.420337,53.303479],[-6.4416,53.292521],[-6.463979,53.284042],[-6.59528,53.246305],[-6.607936,53.243963],[-6.62296,53.243295]]},"properties":{"name":"M7"}},{"type":"Feature","geometry":{"type":"LineString","coordinates":[[-6.62296,53.243295],[-6.653917,53.241921],[-6.664267,53.240691],[-6.674502,53.238678],[-6.68447,53.235668],[-6.694002,53.231453],[-6.703217,53.225465],[-6.711075,53.218284],[-6.735689,53.186728],[-6.741981,53.18004],[-6.749039,53.174169],[-6.757997,53.16905],[-6.767525,53.165742],[-6.777491,53.163864],[-6.986224,53.153118],[-6.998887,53.15101],[-7.011285,53.147101],[-7.016291,53.144587],[-7.029943,53.134895],[-7.035515,53.131552],[-7.041381,53.12886],[-7.183985,53.089213],[-7.194679,53.085071],[-7.205084,53.08008],[-7.222839,53.068632],[-7.274691,53.024998],[-7.282976,53.019646],[-7.287339,53.017379],[-7.292375,53.015571],[-7.297564,53.014632],[-7.302861,53.014334],[-7.343313,53.015271],[-7.355037,53.014646],[-7.377404,53.01042],[-7.397881,53.001912],[-7.41636,52.989545],[-7.432742,52.973736],[-7.472183,52.923157],[-7.487219,52.907929]]},"properties":{"name":"M7"}},{"type":"Feature","geometry":{"type":"LineString","coordinates":[[-6.10137,54.480949],[-6.125995,54.477096],[-6.151153,54.475573],[-6.176279,54.476784],[-6.200816,54.481153],[-6.222101,54.488337],[-6.263579,54.505902],[-6.285234,54.511764],[-6.298418,54.512744],[-6.311177,54.511575],[-6.442169,54.475305],[-6.447396,54.47457],[-6.45234,54.474447],[-6.462531,54.47536],[-6.518747,54.488404],[-6.53778,54.49077],[-6.549686,54.491207]]},"properties":{"name":"M1"}},{"type":"Feature","geometry":{"type":"LineString","coordinates":[[-3.463615,56.394819],[-3.438651,56.394172],[-3.339959,56.381233],[-3.315506,56.381493],[-3.29138,56.385001],[-3.26768,56.392375],[-3.245815,56.402785],[-3.16206,56.45316],[-3.139286,56.462729],[-3.115675,56.470056],[-3.091088,56.475315],[-3.023008,56.482167],[-2.954537,56.48336]]},"properties":{"name":"M90"}},{"type":"Feature","geometry":{"type":"LineString","coordinates":[[-0.405201,51.721032],[-0.423614,51.818915],[-0.426356,51.839825],[-0.431198,51.858871],[-0.438636,51.876763],[-0.448698,51.893309],[-0.461404,51.908316],[-0.49403,51.940138],[-0.538677,51.992671],[-0.546981,52.000441],[-0.555853,52.007564],[-0.566517,52.014462],[-0.577776,52.020217],[-0.637887,52.042083],[-0.802086,52.125654],[-0.817206,52.134821],[-0.831463,52.14521],[-0.844564,52.157061],[-0.850184,52.164155],[-0.859384,52.179855],[-0.864695,52.187144],[-0.877825,52.200655],[-0.885015,52.206681],[-0.9449,52.241177],[-1.011761,52.268609],[-1.049883,52.278908],[-1.093795,52.287361],[-1.104959,52.290972],[-1.115629,52.295872],[-1.125975,52.302458],[-1.140519,52.314647],[-1.15368,52.32844],[-1.165495,52.343435],[-1.176002,52.359232],[-1.184838,52.374769],[-1.192455,52.391161],[-1.198237,52.408236],[-1.201565,52.425807],[-1.202022,52.433769],[-1.201535,52.441723]]},"properties":{"name":"M1"}},{"type":"Feature","geometry":{"type":"LineString","coordinates":[[-2.273392,53.556929],[-2.263636,53.546499],[-2.25999,53.543512],[-2.255959,53.541074],[-2.251808,53.539298],[-2.242887,53.536929],[-2.17391,53.526379],[-2.165409,53.523492],[-2.15707,53.519047],[-2.149031,53.51326],[-2.141639,53.506656],[-2.135236,53.499744],[-2.129577,53.491798],[-2.125616,53.483308],[-2.123482,53.474225],[-2.123307,53.464504],[-2.124055,53.460053],[-2.12547,53.455573],[-2.127382,53.451265],[-2.12962,53.44733],[-2.134172,53.442001],[-2.13525,53.440096],[-2.135646,53.4382],[-2.136301,53.414114],[-2.136698,53.411063],[-2.194693,53.404267],[-2.25226,53.392883],[-2.266689,53.388371],[-2.267613,53.388336],[-2.268647,53.388733],[-2.405281,53.469202]]},"properties":{"name":"M60"}},{"type":"Feature","geometry":{"type":"LineString","coordinates":[[0.320953,51.326549],[0.443614,51.31735],[0.479309,51.309976],[0.55673,51.285893],[0.663133,51.243235],[0.862653,51.185469],[0.909726,51.162634]]},"properties":{"name":"M20"}},{"type":"Feature","geometry":{"type":"LineString","coordinates":[[-2.551699,51.914937],[-2.533564,51.92675],[-2.47235,51.950579],[-2.451424,51.961678],[-2.411874,51.987832],[-2.391132,51.999271],[-2.379567,52.003752],[-2.367759,52.006662],[-2.35567,52.008065],[-2.343263,52.00806],[-2.291593,52.003804],[-2.278871,52.00509],[-2.26685,52.008147],[-2.200224,52.035535],[-2.184408,52.040004],[-2.168309,52.042903],[-2.152006,52.044064],[-2.135584,52.043311]]},"properties":{"name":"M50"}},{"type":"Feature","geometry":{"type":"LineString","coordinates":[[-0.980108,53.600858],[-0.959065,53.597816],[-0.918053,53.586557],[-0.734826,53.559175],[-0.633631,53.55482],[-0.543597,53.56208],[-0.426849,53.583822]]},"properties":{"name":"M180"}},{"type":"Feature","geometry":{"type":"LineString","coordinates":[[-2.954537,56.487787],[-2.943858,56.476453],[-2.936629,56.463462],[-2.934707,56.449356],[-2.93994,56.434679],[-2.950046,56.422581],[-2.962633,56.412565],[-2.976549,56.404217],[-3.057487,56.366877],[-3.076465,56.354256],[-3.093709,56.3395],[-3.10895,56.3227],[-3.121906,56.303948],[-3.133858,56.281058],[-3.142847,56.256849],[-3.145535,56.245444],[-3.146841,56.234247],[-3.146837,56.222977],[-3.142339,56.189102],[-3.142096,56.177872],[-3.143941,56.16687],[-3.147453,56.158881],[-3.152672,56.152272],[-3.159271,56.146961],[-3.166944,56.142836],[-3.184106,56.137195],[-3.237564,56.127786],[-3.375081,56.089375]]},"properties":{"name":"M92"}},{"type":"Feature","geometry":{"type":"LineString","coordinates":[[-2.679401,51.4974],[-2.675367,51.479771],[-2.667998,51.463805],[-2.654674,51.450896],[-2.632771,51.442431]]},"properties":{"name":"M4"}},{"type":"Feature","geometry":{"type":"LineString","coordinates":[[-3.397211,55.956573],[-3.378209,56.010469],[-3.370579,56.048777],[-3.368861,56.068777],[-3.370264,56.0886],[-3.376304,56.107736],[-3.411481,56.173477],[-3.414828,56.181871],[-3.416374,56.186765],[-3.41755,56.191741],[-3.418329,56.197137],[-3.418062,56.201959],[-3.416491,56.206188],[-3.414006,56.210061],[-3.410991,56.213815],[-3.407679,56.216854],[-3.378808,56.235556],[-3.371465,56.242379],[-3.366252,56.249881],[-3.363263,56.258435],[-3.362594,56.268396],[-3.363893,56.276732],[-3.366632,56.285156],[-3.370274,56.293285],[-3.389957,56.328478],[-3.401795,56.345751],[-3.415299,56.361134],[-3.430248,56.374907],[-3.45519,56.391392]]},"properties":{"name":"M90"}},{"type":"Feature","geometry":{"type":"LineString","coordinates":[[-4.568013,55.51315],[-4.563253,55.521142],[-4.5579,55.528481],[-4.551653,55.535049],[-4.527427,55.551867],[-4.519956,55.558427],[-4.513746,55.566407],[-4.477088,55.635968],[-4.405385,55.734963],[-4.396076,55.744912],[-4.385894,55.75379],[-4.366516,55.767712],[-4.357702,55.775467],[-4.350309,55.785017],[-4.344426,55.796812],[-4.332113,55.834476],[-4.327307,55.845446],[-4.321034,55.855304],[-4.313451,55.864238],[-4.3047,55.872458]]},"properties":{"name":"M77"}},{"type":"Feature","geometry":{"type":"LineString","coordinates":[[-2.405281,53.469202],[-2.385825,53.47627],[-2.362182,53.481079],[-2.358452,53.481368],[-2.289078,53.474351]]},"properties":{"name":"M602"}},{"type":"Feature","geometry":{"type":"LineString","coordinates":[[-2.323579,53.690116],[-2.317156,53.65861],[-2.312781,53.611612],[-2.312097,53.608637],[-2.31049,53.605505],[-2.308084,53.602457],[-2.305262,53.599761],[-2.302414,53.597711],[-2.29882,53.596019],[-2.294937,53.594564],[-2.291241,53.592858],[-2.288218,53.590405],[-2.286077,53.586963],[-2.284651,53.583011],[-2.282727,53.574966]]},"properties":{"name":"M66"}},{"type":"Feature","geometry":{"type":"LineString","coordinates":[[-1.715041,53.513006],[-1.768327,53.499017],[-1.91589,53.480575],[-1.993018,53.459172]]},"properties":{"name":"M628"}},{"type":"Feature","geometry":{"type":"LineString","coordinates":[[-1.993018,53.459172],[-2.036902,53.448873],[-2.130122,53.443208]]},"properties":{"name":"M67"}},{"type":"Feature","geometry":{"type":"LineString","coordinates":[[0.126494,51.312896],[0.155691,51.27564],[0.171564,51.258627],[0.180827,51.251411],[0.19103,51.246374],[0.200136,51.24288],[0.207889,51.238373],[0.213915,51.231997],[0.217843,51.222885],[0.220991,51.209363],[0.222659,51.205055],[0.224677,51.201722],[0.227186,51.198881],[0.23313,51.194007],[0.288338,51.159356],[0.319139,51.143801],[0.330992,51.138898],[0.337147,51.136996],[0.343406,51.13583]]},"properties":{"name":"M26"}},{"type":"Feature","geometry":{"type":"LineString","coordinates":[[-3.012082,53.464299],[-2.97567,53.478705],[-2.907816,53.518233],[-2.871653,53.533219],[-2.830024,53.540779],[-2.70221,53.53956]]},"properties":{"name":"M58"}},{"type":"Feature","geometry":{"type":"LineString","coordinates":[[-2.697783,53.791884],[-2.750776,53.803009],[-2.804673,53.808017],[-3.027567,53.800171],[-3.034411,53.800558],[-3.043558,53.819412],[-3.045139,53.824202],[-3.046176,53.829116],[-3.04653,53.834153],[-3.046389,53.836954],[-3.046019,53.839724],[-3.045435,53.842457],[-3.044652,53.845144],[-3.0433,53.84841],[-3.041655,53.850761],[-3.039472,53.852654],[-3.017675,53.864852],[-3.011094,53.867676]]},"properties":{"name":"M55"}},{"type":"Feature","geometry":{"type":"LineString","coordinates":[[-2.62938,53.716066],[-2.470106,53.731263],[-2.4437,53.738557],[-2.436855,53.741215],[-2.430409,53.744656],[-2.418234,53.752771],[-2.413117,53.757155],[-2.403912,53.767369],[-2.399,53.772088],[-2.393155,53.776029],[-2.386877,53.778919],[-2.373538,53.783175]]},"properties":{"name":"M59"}},{"type":"Feature","geometry":{"type":"LineString","coordinates":[[-1.152841,52.335484],[-1.276651,52.348105],[-1.408334,52.380574],[-1.653063,52.472713]]},"properties":{"name":"M45"}},{"type":"Feature","geometry":{"type":"LineString","coordinates":[[-1.470963,52.463129],[-1.344655,52.562747],[-1.315028,52.581374],[-1.258137,52.611095],[-1.209974,52.628184]]},"properties":{"name":"M69"}},{"type":"Feature","geometry":{"type":"LineString","coordinates":[[-2.373538,53.783175],[-2.299376,53.794308],[-2.251483,53.807915],[-2.228336,53.816679],[-2.205555,53.827279],[-2.118015,53.877091],[-2.087366,53.890817],[-2.071649,53.895889],[-2.055869,53.899448],[-1.977454,53.906862],[-1.962937,53.911409]]},"properties":{"name":"M59"}},{"type":"Feature","geometry":{"type":"LineString","coordinates":[[-1.834562,52.353188],[-1.804602,52.372734],[-1.769916,52.386562],[-1.737869,52.40324],[-1.715826,52.431325],[-1.711935,52.45187],[-1.714399,52.472466],[-1.725573,52.513058],[-1.727399,52.523476],[-1.728042,52.53395],[-1.727226,52.544372],[-1.724656,52.554639],[-1.721082,52.563564],[-1.711938,52.580516],[-1.697742,52.600957],[-1.677898,52.624229],[-1.657734,52.644043],[-1.637456,52.660479],[-1.626509,52.667487]]},"properties":{"name":"M42"}},{"type":"Feature","geometry":{"type":"LineString","coordinates":[[0.007509,51.438459],[0.045718,51.414935],[0.08862,51.406859],[0.133413,51.409382],[0.197546,51.421311],[0.207813,51.422032],[0.218074,51.421542],[0.226961,51.419672],[0.234933,51.416323],[0.242189,51.41159],[0.248915,51.405549],[0.253678,51.397172],[0.254784,51.387917],[0.255108,51.378453],[0.257526,51.369446],[0.259704,51.366196],[0.262484,51.363431],[0.265693,51.361078],[0.298666,51.342906],[0.32107,51.327439]]},"properties":{"name":"M20"}}]}