{"type":"FeatureCollection","features":[{"type":"Feature","properties":{"name":"Thames"},"geometry":{"type":"LineString","coordinates":[[-2.051,51.842],[-2.022,51.835],[-1.998,51.821],[-1.98,51.797],[-1.971,51.771],[-1.969,51.735],[-1.952,51.713],[-1.938,51.69],[-1.848,51.658],[-1.829,51.655],[-1.818,51.657],[-1.74,51.66],[-1.72,51.665],[-1.715,51.67],[-1.71,51.676],[-1.703,51.682],[-1.693,51.686],[-1.683,51.685],[-1.641,51.678],[-1.62,51.682],[-1.562,51.7],[-1.484,51.7],[-1.473,51.702],[-1.451,51.712],[-1.439,51.714],[-1.429,51.712],[-1.417,51.708],[-1.404,51.705],[-1.391,51.706],[-1.375,51.721],[-1.361,51.76],[-1.343,51.775],[-1.326,51.782],[-1.314,51.784],[-1.301,51.782],[-1.294,51.776],[-1.284,51.759],[-1.258,51.745],[-1.248,51.724],[-1.242,51.702],[-1.23,51.693],[-1.222,51.69],[-1.222,51.682],[-1.23,51.675],[-1.289,51.659],[-1.273,51.647],[-1.253,51.644],[-1.216,51.645],[-1.215,51.65],[-1.207,51.658],[-1.197,51.661],[-1.19,51.64],[-1.184,51.636],[-1.143,51.624],[-1.131,51.617],[-1.125,51.604],[-1.124,51.58],[-1.131,51.566],[-1.144,51.553],[-1.15,51.537],[-1.138,51.515],[-1.123,51.503],[-1.103,51.495],[-1.081,51.489],[-1.059,51.487],[-1.042,51.482],[-1.004,51.459],[-0.987,51.453],[-0.965,51.455],[-0.931,51.47],[-0.907,51.477],[-0.887,51.491],[-0.88,51.498],[-0.873,51.508],[-0.874,51.513],[-0.879,51.518],[-0.884,51.528],[-0.887,51.548],[-0.882,51.551],[-0.869,51.546],[-0.846,51.543],[-0.774,51.557],[-0.761,51.556],[-0.743,51.562],[-0.719,51.563],[-0.697,51.559],[-0.686,51.549],[-0.689,51.53],[-0.699,51.517],[-0.701,51.507],[-0.679,51.494],[-0.662,51.492],[-0.62,51.495],[-0.604,51.494],[-0.59,51.487],[-0.579,51.476],[-0.573,51.461],[-0.576,51.446],[-0.532,51.434],[-0.47,51.39],[-0.425,51.391],[-0.418,51.394],[-0.411,51.398],[-0.403,51.402],[-0.391,51.405],[-0.385,51.407],[-0.38,51.411],[-0.374,51.413],[-0.35,51.4],[-0.349,51.399],[-0.334,51.398],[-0.324,51.401],[-0.316,51.407],[-0.308,51.419],[-0.319,51.428],[-0.32,51.436],[-0.308,51.446],[-0.323,51.465],[-0.31,51.473],[-0.271,51.474],[-0.26,51.476],[-0.247,51.485],[-0.236,51.487],[-0.226,51.484],[-0.21,51.471],[-0.198,51.467],[-0.179,51.47],[-0.157,51.477],[-0.135,51.487],[-0.102,51.509],[-0.085,51.512],[-0.067,51.508],[-0.049,51.501],[-0.038,51.498],[-0.007,51.494],[0.01,51.501],[0.021,51.502],[0.048,51.491],[0.072,51.492],[0.129,51.505],[0.148,51.505],[0.168,51.499],[0.188,51.484],[0.203,51.477],[0.275,51.46],[0.306,51.467],[0.322,51.467],[0.329,51.457],[0.338,51.449],[0.356,51.446],[0.368,51.449],[0.385,51.453]]}},{"type":"Feature","properties":{"name":"Shannon"},"geometry":{"type":"MultiLineString","coordinates":[[[-7.94,53.84],[-7.953,53.853],[-7.961,53.857],[-7.974,53.866],[-7.981,53.875],[-7.983,53.879],[-7.983,53.88]],[[-8.004,53.667],[-8.018,53.652],[-8.032,53.631],[-8.024,53.611],[-8.007,53.587],[-7.985,53.561],[-7.973,53.545],[-7.965,53.529],[-7.958,53.496],[-7.958,53.454]],[[-8.449,52.817],[-8.446,52.834],[-8.421,52.866],[-8.406,52.89],[-8.397,52.9],[-8.378,52.913],[-8.354,52.92],[-8.326,52.926],[-8.311,52.943],[-8.307,52.968],[-8.306,52.987],[-8.3,53.002],[-8.285,53.016],[-8.269,53.032],[-8.255,53.046],[-8.237,53.055],[-8.199,53.079]]]}},{"type":"Feature","properties":{"name":"Shannon"},"geometry":{"type":"MultiLineString","coordinates":[[[-8.068,54.064],[-8.082,54.058],[-8.089,54.05],[-8.091,54.039],[-8.084,54.009],[-8.081,54.004],[-8.065,53.998],[-8.068,53.99],[-8.075,53.982],[-8.079,53.978],[-8.086,53.975],[-8.099,53.964],[-8.107,53.953],[-8.097,53.947],[-8.092,53.944],[-8.094,53.927],[-8.093,53.92],[-8.085,53.917],[-8.067,53.918],[-8.059,53.913],[-8.047,53.919],[-8.037,53.925],[-8.029,53.933],[-8.024,53.941],[-7.995,53.915],[-7.986,53.9],[-7.983,53.879]],[[-7.94,53.84],[-7.927,53.826],[-7.922,53.811],[-7.916,53.799],[-7.901,53.79],[-7.894,53.793],[-7.888,53.789],[-7.885,53.78],[-7.887,53.77],[-7.894,53.765],[-7.929,53.755],[-7.927,53.752],[-7.922,53.742],[-7.931,53.743],[-7.939,53.741],[-7.945,53.739],[-7.95,53.735],[-7.951,53.732],[-7.949,53.727],[-7.949,53.723],[-7.969,53.714],[-7.988,53.695],[-7.997,53.682],[-8.004,53.667]],[[-7.958,53.454],[-7.933,53.398],[-7.933,53.376],[-7.962,53.352],[-8.004,53.33],[-8.013,53.324],[-8.02,53.314],[-8.042,53.292],[-8.048,53.282],[-8.045,53.273],[-8.031,53.262],[-7.978,53.237],[-7.969,53.225],[-7.977,53.207],[-7.995,53.197],[-8.038,53.187],[-8.094,53.163],[-8.117,53.159],[-8.138,53.153],[-8.154,53.136],[-8.182,53.097],[-8.199,53.079]],[[-8.449,52.817],[-8.447,52.793],[-8.46,52.771],[-8.477,52.755],[-8.509,52.744],[-8.509,52.734],[-8.505,52.721],[-8.508,52.71],[-8.513,52.706],[-8.52,52.703],[-8.528,52.701],[-8.535,52.701],[-8.545,52.698],[-8.549,52.693],[-8.552,52.686],[-8.558,52.68],[-8.568,52.676],[-8.579,52.674],[-8.592,52.673],[-8.607,52.673],[-8.612,52.675],[-8.615,52.678],[-8.619,52.681],[-8.627,52.68],[-8.632,52.676],[-8.635,52.662],[-8.638,52.659],[-8.666,52.653],[-8.683,52.651],[-8.69,52.656],[-8.695,52.666],[-8.708,52.672],[-8.723,52.674],[-8.739,52.673]]]}},{"type":"Feature","properties":{"name":"Ness"},"geometry":{"type":"LineString","coordinates":[[-4.676,57.148],[-4.675,57.148],[-4.639,57.17],[-4.62,57.181],[-4.56,57.224],[-4.526,57.242],[-4.51,57.252],[-4.468,57.291],[-4.399,57.347],[-4.358,57.373],[-4.344,57.394]]}},{"type":"Feature","properties":{"name":"Ness"},"geometry":{"type":"LineString","coordinates":[[-4.344,57.394],[-4.324,57.406],[-4.308,57.422],[-4.29,57.436],[-4.266,57.442],[-4.266,57.446],[-4.257,57.454],[-4.246,57.461],[-4.242,57.463],[-4.238,57.465],[-4.233,57.464],[-4.23,57.465],[-4.229,57.473],[-4.229,57.477],[-4.23,57.479],[-4.23,57.482],[-4.226,57.494]]}},{"type":"Feature","properties":{"name":"Oich"},"geometry":{"type":"LineString","coordinates":[[-4.836,57.01],[-4.842,57.007],[-4.845,57.004],[-4.855,56.998],[-4.864,56.991],[-4.882,56.973],[-4.891,56.967],[-4.914,56.958],[-4.931,56.946],[-4.949,56.938],[-4.958,56.932],[-4.969,56.928]]}},{"type":"Feature","properties":{"name":"Oich"},"geometry":{"type":"LineString","coordinates":[[-4.675,57.148],[-4.694,57.142],[-4.705,57.135],[-4.714,57.128],[-4.722,57.12],[-4.752,57.079],[-4.775,57.071],[-4.836,57.01]]}},{"type":"Feature","properties":{"name":"Trent"},"geometry":{"type":"LineString","coordinates":[[-2.164,53.04],[-2.194,52.998],[-2.196,52.979],[-2.183,52.952],[-2.166,52.932],[-2.148,52.915],[-2.105,52.886],[-2.051,52.862],[-2.035,52.851],[-1.999,52.814],[-1.982,52.805],[-1.901,52.77],[-1.88,52.765],[-1.834,52.766],[-1.794,52.765],[-1.73,52.753],[-1.713,52.759],[-1.68,52.784],[-1.653,52.799],[-1.586,52.853],[-1.56,52.865],[-1.531,52.87],[-1.408,52.86],[-1.381,52.864],[-1.296,52.894],[-1.263,52.896],[-1.222,52.916],[-1.145,52.964],[-1.101,52.974],[-1.064,52.969],[-1.052,52.969],[-1.038,52.975],[-1.029,52.994],[-0.984,53.008],[-0.912,53.058],[-0.831,53.097],[-0.803,53.126],[-0.791,53.158],[-0.768,53.279],[-0.748,53.312],[-0.745,53.323],[-0.747,53.331],[-0.763,53.363],[-0.768,53.367],[-0.774,53.37],[-0.78,53.373],[-0.78,53.38],[-0.776,53.39],[-0.774,53.396],[-0.775,53.401],[-0.789,53.42],[-0.799,53.429],[-0.802,53.44],[-0.794,53.461],[-0.78,53.483],[-0.749,53.52],[-0.739,53.543],[-0.724,53.665],[-0.706,53.692]]}},{"type":"Feature","properties":{"name":"Severn"},"geometry":{"type":"LineString","coordinates":[[-3.691,52.529],[-3.664,52.525],[-3.645,52.519],[-3.631,52.498],[-3.613,52.485],[-3.587,52.473],[-3.561,52.466],[-3.544,52.464],[-3.51,52.452],[-3.487,52.452],[-3.465,52.455],[-3.446,52.465],[-3.438,52.476],[-3.428,52.5],[-3.421,52.511],[-3.41,52.519],[-3.397,52.524],[-3.37,52.529],[-3.278,52.526],[-3.248,52.534],[-3.228,52.545],[-3.191,52.574],[-3.156,52.61],[-3.074,52.727],[-3.056,52.741],[-3.049,52.744],[-3.046,52.745],[-3.042,52.746],[-3.028,52.747],[-2.97,52.741],[-2.928,52.741],[-2.913,52.739],[-2.885,52.731],[-2.871,52.729],[-2.851,52.73],[-2.811,52.741],[-2.791,52.742],[-2.79,52.739],[-2.79,52.726],[-2.788,52.721],[-2.778,52.719],[-2.745,52.722],[-2.728,52.719],[-2.72,52.714],[-2.717,52.707],[-2.71,52.698],[-2.662,52.657],[-2.633,52.64],[-2.607,52.633],[-2.514,52.648],[-2.482,52.641],[-2.465,52.629],[-2.453,52.61],[-2.439,52.566],[-2.437,52.555],[-2.437,52.533],[-2.434,52.522],[-2.373,52.43],[-2.346,52.398],[-2.304,52.363],[-2.287,52.342],[-2.277,52.331],[-2.272,52.322],[-2.271,52.316],[-2.273,52.3],[-2.271,52.292],[-2.265,52.278],[-2.251,52.253],[-2.245,52.237],[-2.241,52.207],[-2.239,52.2],[-2.232,52.187],[-2.229,52.179],[-2.229,52.16],[-2.236,52.124],[-2.237,52.108],[-2.232,52.095],[-2.189,52.021],[-2.178,52.009],[-2.155,51.992],[-2.153,51.99],[-2.22,51.929],[-2.253,51.91],[-2.261,51.902],[-2.255,51.886],[-2.254,51.88],[-2.258,51.874],[-2.264,51.868],[-2.291,51.845],[-2.299,51.844],[-2.308,51.846],[-2.326,51.846],[-2.338,51.841],[-2.344,51.834],[-2.348,51.824],[-2.353,51.814],[-2.362,51.805],[-2.384,51.789],[-2.391,51.778]]}},{"type":"Feature","properties":{"name":"Caledonian Canal"},"geometry":{"type":"LineString","coordinates":[[-4.969,56.928],[-4.986,56.912],[-5.028,56.89],[-5.107,56.834],[-5.12,56.818]]}}]}